[{"OBJECT_NAME":"SHIJIAN-6 04A (SJ-6 04A)","OBJECT_ID":"2010-051A","EPOCH":"2026-03-09T23:23:42.914400","MEAN_MOTION":15.16645177,"ECCENTRICITY":0.00182577,"INCLINATION":97.8386,"RA_OF_ASC_NODE":88.8025,"ARG_OF_PERICENTER":202.8454,"MEAN_ANOMALY":157.1968,"EPHEMERIS_TYPE":0,"CLASSIFICATION_TYPE":"U","NORAD_CAT_ID":37179,"ELEMENT_SET_NO":999,"REV_AT_EPOCH":84190,"BSTAR":0.00032742446,"MEAN_MOTION_DOT":6.359e-5,"MEAN_MOTION_DDOT":0},{"OBJECT_NAME":"EROS C3","OBJECT_ID":"2022-179A","EPOCH":"2026-03-09T22:55:46.034688","MEAN_MOTION":15.11815462,"ECCENTRICITY":0.00031674,"INCLINATION":139.3349,"RA_OF_ASC_NODE":157.9345,"ARG_OF_PERICENTER":31.9169,"MEAN_ANOMALY":328.1831,"EPHEMERIS_TYPE":0,"CLASSIFICATION_TYPE":"U","NORAD_CAT_ID":54880,"ELEMENT_SET_NO":999,"REV_AT_EPOCH":17731,"BSTAR":0.00041429699,"MEAN_MOTION_DOT":7.479e-5,"MEAN_MOTION_DDOT":0}]
